[{"OBJECT_NAME":"TROLL","OBJECT_ID":"2025-009BB","EPOCH":"2026-03-09T05:24:19.835712","MEAN_MOTION":15.28164315,"ECCENTRICITY":0.00018165,"INCLINATION":97.3932,"RA_OF_ASC_NODE":150.7169,"ARG_OF_PERICENTER":59.185,"MEAN_ANOMALY":300.9568,"EPHEMERIS_TYPE":0,"CLASSIFICATION_TYPE":"U","NORAD_CAT_ID":62658,"ELEMENT_SET_NO":999,"REV_AT_EPOCH":11817,"BSTAR":0.00048220305,"MEAN_MOTION_DOT":0.00013174,"MEAN_MOTION_DDOT":0},{"OBJECT_NAME":"STARLINK-35771","OBJECT_ID":"2025-303J","EPOCH":"2026-03-09T23:12:36.519840","MEAN_MOTION":15.27631948,"ECCENTRICITY":7.303e-5,"INCLINATION":42.9981,"RA_OF_ASC_NODE":309.4879,"ARG_OF_PERICENTER":129.4753,"MEAN_ANOMALY":230.6163,"EPHEMERIS_TYPE":0,"CLASSIFICATION_TYPE":"U","NORAD_CAT_ID":67171,"ELEMENT_SET_NO":999,"REV_AT_EPOCH":1277,"BSTAR":0.0011827667,"MEAN_MOTION_DOT":0.0003248,"MEAN_MOTION_DDOT":0}]
